KUIPER-00112            
1 65150U 25171U   25270.18785247  .00049445  00000+0  13782-2 0  9999
2 65150  51.8761 179.7102 0004735 331.2214  28.8511 15.36276837  8415
KUIPER-00114            
1 65151U 25171V   25270.58339120 -.01244766  00000+0 -77992-1 0  9997
2 65151  51.8861 179.8331 0004319 287.3488 122.5795 15.12131990  5466
KUIPER-00115            
1 65152U 25171W   25270.58339120 -.00003574  00000+0 -10655-3 0  9992
2 65152  51.8755 177.7418 0006638 283.8793 133.4563 15.30697101  4653
KUIPER-00116            
1 65153U 25171X   25270.58339120  .00025869  00000+0  12808-2 0  9993
2 65153  51.8905 178.9463 0004050 284.1638 221.2177 15.17610895  5717
KUIPER-00118            
1 65154U 25171Y   25270.58339120 -.02593214  00000+0 -15735+0 0  9991
2 65154  51.8798 179.6914 0003781 284.0377 269.6973 15.14188418  5781
KUIPER-00119            
1 65155U 25171Z   25270.16548745  .00052233  00000+0  14192-2 0  9997
2 65155  51.8753 179.5630 0005583 290.1743  69.8643 15.37042668  8412
